{"type": "FeatureCollection", "features": [ {"type": "Feature", "properties": {"norad_id": 30662, "name": "FENGYUN 1C DEB", "group": "fengyun-1c-debris", "lat": -5.69485427236219, "lon": 45.16458660232456, "alt_km": 819.5574084314912, "timestamp": "2025-12-13T22:39:29.988168+00:00", "meta": {"OBJECT_NAME": "FENGYUN 1C DEB", "OBJECT_ID": "1999-025APU", "EPOCH": "2025-12-12T22:12:27.934848", "MEAN_MOTION": 14.22361091, "ECCENTRICITY": 0.00329988, "INCLINATION": 99.0535, "RA_OF_ASC_NODE": 43.2077, "ARG_OF_PERICENTER": 270.4709, "MEAN_ANOMALY": 269.7689, "EPHEMERIS_TYPE": 0, "CLASSIFICATION_TYPE": "U", "NORAD_CAT_ID": 30662, "ELEMENT_SET_NO": 999, "REV_AT_EPOCH": 96641, "BSTAR": 0.0022292021, "MEAN_MOTION_DOT": 4.943e-05, "MEAN_MOTION_DDOT": 0}, "tle": {"line1": "1 30662U 99025APU 25346.92532332  .00004943  00000+0  22292-2 0  9999", "line2": "2 30662  99.0535  43.2077 0032998 270.4709 269.7689 14.22361091966415"}}, "geometry": {"type": "Point", "coordinates": [45.16458660232456, -5.69485427236219]}}, {"type": "Feature", "properties": {"norad_id": 30663, "name": "FENGYUN 1C DEB", "group": "fengyun-1c-debris", "lat": 17.014382737017552, "lon": 87.6526875485373, "alt_km": 737.8741827875174, "timestamp": "2025-12-13T22:39:29.988178+00:00", "meta": {"OBJECT_NAME": "FENGYUN 1C DEB", "OBJECT_ID": "1999-025APV", "EPOCH": "2025-12-13T05:33:01.881792", "MEAN_MOTION": 13.23136003, "ECCENTRICITY": 0.06480528, "INCLINATION": 99.3027, "RA_OF_ASC_NODE": 264.1374, "ARG_OF_PERICENTER": 135.391, "MEAN_ANOMALY": 230.1283, "EPHEMERIS_TYPE": 0, "CLASSIFICATION_TYPE": "U", "NORAD_CAT_ID": 30663, "ELEMENT_SET_NO": 999, "REV_AT_EPOCH": 89054, "BSTAR": 0.0023526404, "MEAN_MOTION_DOT": 3.038e-05, "MEAN_MOTION_DDOT": 0}, "tle": {"line1": "1 30663U 99025APV 25347.23127178  .00003038  00000+0  23526-2 0  9998", "line2": "2 30663  99.3027 264.1374 0648052 135.3910 230.1283 13.23136003890541"}}, "geometry": {"type": "Point", "coordinates": [87.6526875485373, 17.014382737017552]}}, {"type": "Feature", "properties": {"norad_id": 30665, "name": "FENGYUN 1C DEB", "group": "fengyun-1c-debris", "lat": 29.745004841425555, "lon": -45.74192055687953, "alt_km": 897.73839955118, "timestamp": "2025-12-13T22:39:29.988188+00:00", "meta": {"OBJECT_NAME": "FENGYUN 1C DEB", "OBJECT_ID": "1999-025APX", "EPOCH": "2025-12-12T21:16:18.384960", "MEAN_MOTION": 14.12342433, "ECCENTRICITY": 0.00676371, "INCLINATION": 99.2082, "RA_OF_ASC_NODE": 318.4904, "ARG_OF_PERICENTER": 202.1197, "MEAN_ANOMALY": 213.0695, "EPHEMERIS_TYPE": 0, "CLASSIFICATION_TYPE": "U", "NORAD_CAT_ID": 30665, "ELEMENT_SET_NO": 999, "REV_AT_EPOCH": 95972, "BSTAR": 0.0022945687, "MEAN_MOTION_DOT": 4.274e-05, "MEAN_MOTION_DDOT": 0}, "tle": {"line1": "1 30665U 99025APX 25346.88632390  .00004274  00000+0  22946-2 0  9995", "line2": "2 30665  99.2082 318.4904 0067637 202.1197 213.0695 14.12342433959727"}}, "geometry": {"type": "Point", "coordinates": [-45.74192055687953, 29.745004841425555]}}, {"type": "Feature", "properties": {"norad_id": 30666, "name": "FENGYUN 1C DEB", "group": "fengyun-1c-debris", "lat": 21.040240258020155, "lon": 154.9481547582763, "alt_km": 842.4463918752081, "timestamp": "2025-12-13T22:39:29.988198+00:00", "meta": {"OBJECT_NAME": "FENGYUN 1C DEB", "OBJECT_ID": "1999-025APY", "EPOCH": "2025-12-13T04:51:49.987296", "MEAN_MOTION": 14.02555777, "ECCENTRICITY": 0.00611864, "INCLINATION": 98.8223, "RA_OF_ASC_NODE": 330.8052, "ARG_OF_PERICENTER": 142.7497, "MEAN_ANOMALY": 234.038, "EPHEMERIS_TYPE": 0, "CLASSIFICATION_TYPE": "U", "NORAD_CAT_ID": 30666, "ELEMENT_SET_NO": 999, "REV_AT_EPOCH": 96117, "BSTAR": 0.00029614016, "MEAN_MOTION_DOT": 4.21e-06, "MEAN_MOTION_DDOT": 0}, "tle": {"line1": "1 30666U 99025APY 25347.20266189  .00000421  00000+0  29614-3 0  9992", "line2": "2 30666  98.8223 330.8052 0061186 142.7497 234.0380 14.02555777961179"}}, "geometry": {"type": "Point", "coordinates": [154.9481547582763, 21.040240258020155]}}, {"type": "Feature", "properties": {"norad_id": 30668, "name": "FENGYUN 1C DEB", "group": "fengyun-1c-debris", "lat": 57.5144672633136, "lon": -104.34666953027646, "alt_km": 875.2986460586972, "timestamp": "2025-12-13T22:39:29.988208+00:00", "meta": {"OBJECT_NAME": "FENGYUN 1C DEB", "OBJECT_ID": "1999-025AQA", "EPOCH": "2025-12-13T03:40:01.698816", "MEAN_MOTION": 14.12332649, "ECCENTRICITY": 0.00791453, "INCLINATION": 99.1304, "RA_OF_ASC_NODE": 60.2174, "ARG_OF_PERICENTER": 244.9066, "MEAN_ANOMALY": 176.0532, "EPHEMERIS_TYPE": 0, "CLASSIFICATION_TYPE": "U", "NORAD_CAT_ID": 30668, "ELEMENT_SET_NO": 999, "REV_AT_EPOCH": 96061, "BSTAR": 0.0027317509, "MEAN_MOTION_DOT": 5.139e-05, "MEAN_MOTION_DDOT": 0}, "tle": {"line1": "1 30668U 99025AQA 25347.15279744  .00005139  00000+0  27318-2 0  9998", "line2": "2 30668  99.1304  60.2174 0079145 244.9066 176.0532 14.12332649960619"}}, "geometry": {"type": "Point", "coordinates": [-104.34666953027646, 57.5144672633136]}}, {"type": "Feature", "properties": {"norad_id": 30669, "name": "FENGYUN 1C DEB", "group": "fengyun-1c-debris", "lat": 43.6859678533432, "lon": 112.89596129967201, "alt_km": 812.4562947578852, "timestamp": "2025-12-13T22:39:29.988219+00:00", "meta": {"OBJECT_NAME": "FENGYUN 1C DEB", "OBJECT_ID": "1999-025AQB", "EPOCH": "2025-12-13T07:19:53.408064", "MEAN_MOTION": 14.0272861, "ECCENTRICITY": 0.01177758, "INCLINATION": 98.6333, "RA_OF_ASC_NODE": 283.9466, "ARG_OF_PERICENTER": 174.9688, "MEAN_ANOMALY": 338.3339, "EPHEMERIS_TYPE": 0, "CLASSIFICATION_TYPE": "U", "NORAD_CAT_ID": 30669, "ELEMENT_SET_NO": 999, "REV_AT_EPOCH": 95461, "BSTAR": 0.0017923363, "MEAN_MOTION_DOT": 2.904e-05, "MEAN_MOTION_DDOT": 0}, "tle": {"line1": "1 30669U 99025AQB 25347.30547926  .00002904  00000+0  17923-2 0  9994", "line2": "2 30669  98.6333 283.9466 0117775 174.9688 338.3339 14.02728610954615"}}, "geometry": {"type": "Point", "coordinates": [112.89596129967201, 43.6859678533432]}}, {"type": "Feature", "properties": {"norad_id": 30670, "name": "FENGYUN 1C DEB", "group": "fengyun-1c-debris", "lat": 61.61648716275542, "lon": -131.169801846577, "alt_km": 815.2430310090294, "timestamp": "2025-12-13T22:39:29.988229+00:00", "meta": {"OBJECT_NAME": "FENGYUN 1C DEB", "OBJECT_ID": "1999-025AQC", "EPOCH": "2025-12-13T01:53:53.613600", "MEAN_MOTION": 14.15817501, "ECCENTRICITY": 0.00398978, "INCLINATION": 98.711, "RA_OF_ASC_NODE": 31.5008, "ARG_OF_PERICENTER": 68.7032, "MEAN_ANOMALY": 321.6088, "EPHEMERIS_TYPE": 0, "CLASSIFICATION_TYPE": "U", "NORAD_CAT_ID": 30670, "ELEMENT_SET_NO": 999, "REV_AT_EPOCH": 97157, "BSTAR": 0.00012802699, "MEAN_MOTION_DOT": 2.11e-06, "MEAN_MOTION_DDOT": 0}, "tle": {"line1": "1 30670U 99025AQC 25347.07909275  .00000211  00000+0  12803-3 0  9991", "line2": "2 30670  98.7110  31.5008 0039897  68.7032 321.6088 14.15817501971573"}}, "geometry": {"type": "Point", "coordinates": [-131.169801846577, 61.61648716275542]}}, {"type": "Feature", "properties": {"norad_id": 30671, "name": "FENGYUN 1C DEB", "group": "fengyun-1c-debris", "lat": -8.745834916139371, "lon": 54.095783639522146, "alt_km": 841.4151651947368, "timestamp": "2025-12-13T22:39:29.988239+00:00", "meta": {"OBJECT_NAME": "FENGYUN 1C DEB", "OBJECT_ID": "1999-025AQD", "EPOCH": "2025-12-13T04:01:49.776672", "MEAN_MOTION": 13.95462199, "ECCENTRICITY": 0.01259819, "INCLINATION": 99.2525, "RA_OF_ASC_NODE": 51.8799, "ARG_OF_PERICENTER": 32.1237, "MEAN_ANOMALY": 22.9691, "EPHEMERIS_TYPE": 0, "CLASSIFICATION_TYPE": "U", "NORAD_CAT_ID": 30671, "ELEMENT_SET_NO": 999, "REV_AT_EPOCH": 95201, "BSTAR": 0.0015953926, "MEAN_MOTION_DOT": 2.269e-05, "MEAN_MOTION_DDOT": 0}, "tle": {"line1": "1 30671U 99025AQD 25347.16793723  .00002269  00000+0  15954-2 0  9995", "line2": "2 30671  99.2525  51.8799 0125981  32.1237  22.9691 13.95462199952019"}}, "geometry": {"type": "Point", "coordinates": [54.095783639522146, -8.745834916139371]}}, {"type": "Feature", "properties": {"norad_id": 30673, "name": "FENGYUN 1C DEB", "group": "fengyun-1c-debris", "lat": -25.69816696668717, "lon": -147.25277221062083, "alt_km": 872.0938997800922, "timestamp": "2025-12-13T22:39:29.988249+00:00", "meta": {"OBJECT_NAME": "FENGYUN 1C DEB", "OBJECT_ID": "1999-025AQF", "EPOCH": "2025-12-13T03:08:01.199616", "MEAN_MOTION": 14.03456966, "ECCENTRICITY": 0.00526605, "INCLINATION": 98.9203, "RA_OF_ASC_NODE": 36.2841, "ARG_OF_PERICENTER": 141.524, "MEAN_ANOMALY": 275.8115, "EPHEMERIS_TYPE": 0, "CLASSIFICATION_TYPE": "U", "NORAD_CAT_ID": 30673, "ELEMENT_SET_NO": 999, "REV_AT_EPOCH": 96537, "BSTAR": 0.00013169766, "MEAN_MOTION_DOT": 1.66e-06, "MEAN_MOTION_DDOT": 0}, "tle": {"line1": "1 30673U 99025AQF 25347.13056944  .00000166  00000+0  13170-3 0  9994", "line2": "2 30673  98.9203  36.2841 0052660 141.5240 275.8115 14.03456966965375"}}, "geometry": {"type": "Point", "coordinates": [-147.25277221062083, -25.69816696668717]}}, {"type": "Feature", "properties": {"norad_id": 30674, "name": "FENGYUN 1C DEB", "group": "fengyun-1c-debris", "lat": -31.275881486760014, "lon": -34.5644585601116, "alt_km": 584.0484012737279, "timestamp": "2025-12-13T22:39:29.988259+00:00", "meta": {"OBJECT_NAME": "FENGYUN 1C DEB", "OBJECT_ID": "1999-025AQG", "EPOCH": "2025-12-12T21:37:54.186240", "MEAN_MOTION": 14.95712167, "ECCENTRICITY": 0.00254308, "INCLINATION": 98.9399, "RA_OF_ASC_NODE": 149.7337, "ARG_OF_PERICENTER": 300.7882, "MEAN_ANOMALY": 59.0832, "EPHEMERIS_TYPE": 0, "CLASSIFICATION_TYPE": "U", "NORAD_CAT_ID": 30674, "ELEMENT_SET_NO": 999, "REV_AT_EPOCH": 97354, "BSTAR": 0.011183519, "MEAN_MOTION_DOT": 0.0012746, "MEAN_MOTION_DDOT": 0}, "tle": {"line1": "1 30674U 99025AQG 25346.90132160  .00127460  00000+0  11184-1 0  9992", "line2": "2 30674  98.9399 149.7337 0025430 300.7882  59.0832 14.95712167973543"}}, "geometry": {"type": "Point", "coordinates": [-34.5644585601116, -31.275881486760014]}}]}